#aV2024  8  6  0  0  0.00000000     288 DD+AD WGS84 FIT  NGA
## 2326 172800.00000000   300.00000000 60528 0.0000000000000
+   31     2  3  4  5  6  7  8  9 10 11 12 13 14 15 16 17 18
+         19 20 21 22 23 24 25 26 27 28 29 30 31 32  0  0  0
+          0  0  0  0  0  0  0  0  0  0  0  0  0  0  0  0  0
+          0  0  0  0  0  0  0  0  0  0  0  0  0  0  0  0  0
+          0  0  0  0  0  0  0  0  0  0  0  0  0  0  0  0  0
++         2  2  2  2  2  2  2  2  2  2  2  2  2  2  2  2  2
++         2  2  2  2  2  2  2  2  2  2  2  2  2  2  0  0  0
++         0  0  0  0  0  0  0  0  0  0  0  0  0  0  0  0  0
++         0  0  0  0  0  0  0  0  0  0  0  0  0  0  0  0  0
++         0  0  0  0  0  0  0  0  0  0  0  0  0  0  0  0  0
%c cc cc ccc ccc cccc cccc cccc cccc ccccc ccccc ccccc ccccc
%c cc cc ccc ccc cccc cccc cccc cccc ccccc ccccc ccccc ccccc
%f  0.0000000  0.000000000  0.00000000000  0.000000000000000
%f  0.0000000  0.000000000  0.00000000000  0.000000000000000
%i    0    0    0    0      0      0      0      0         0
%i    0    0    0    0      0      0      0      0         0
/*      NGA, ST. LOUIS,MO.                                  
/*   EPHEMERIS COMPUTED FROM 2 DAYS OF DATA                 
/*   EPOCHA v9 SMOOTHER                                     
/*   G2296 IERS2010 SATIGS SATAPC                           
*  2024  8  6 22 50  0.00000000
P  2 -20034.199375  -9401.261307  15388.350661   -384.130568                    
V  2  -9730.668289 -15882.187444 -22778.351932      0.075667                    
P  3 -17060.532930   3726.366540  19810.178154    489.712101                    
V  3  11446.685216 -22799.118216  14139.364883      0.151724                    
P  4 -26603.960921   -959.206396    949.691207    419.061625                    
V  4   1211.548239  -2526.347813  31743.963930      0.075229                    
P  5   9888.653962  12804.793614 -21234.035411   -182.333274                    
V  5 -12180.569557  23562.940475   8685.152843     -0.013068                    
P  6   2279.663249  22291.293375  14238.626757    114.788493                    
V  6 -10414.658708 -14711.840190  24909.424030     -0.239921                    
P  7 -12935.124429   7964.098290 -21260.923784    -56.018210                    
V  7 -14917.126275 -24039.815059   -381.411869      0.063399                    
P  8 -22899.765795  -7167.066020 -11954.249860    305.505081                    
V  8  14709.500896  -3113.327205 -26135.866168      0.149754                    
P  9 -23372.804761   8061.615803  -9865.531966    303.670972                    
V  9 -12492.122877  -1885.594776  28253.590588      0.154096                    
P 10   9779.557131 -24115.015528   4546.871886    -86.612296                    
V 10   4649.476380  -3779.408812 -31804.507608     -0.107125                    
P 11  12203.293837  23614.350613    919.826878   -717.524586                    
V 11  -2816.057010    249.834051  31805.581412     -0.058970                    
P 12  16632.908202    428.085964  20413.113947   -528.335089                    
V 12 -13472.573342  22915.320618  10401.523277     -0.029953                    
P 13  15747.944272  13503.807329 -16941.088706    669.256654                    
V 13 -20986.281278  -1116.320916 -20433.780596      0.022424                    
P 14 -12829.465690  23110.870366    597.945528    466.477069                    
V 14  -3404.944859  -1138.421958 -31528.270934      0.087672                    
P 15  23455.212799   4873.370134 -12172.154932    189.667545                    
V 15 -13946.157890   5257.383886 -25686.747370      0.043073                    
P 16  -5955.575671 -16483.674868 -20157.175791   -215.677933                    
V 16  14886.718386 -20120.412550  12698.027366      0.104376                    
P 17 -11367.350527  13550.910161  20285.584247    660.919553                    
V 17 -24715.039801  -1773.221554 -12772.563502     -0.090061                    
P 18  12161.031792  -8686.053729 -21932.399410   -643.907072                    
V 18  14253.599241  23932.490900  -1781.430771     -0.033766                    
P 19  -1177.039127  14950.329677  21758.093745    521.038094                    
V 19 -27891.976255  -2448.620268   -233.414199      0.052143                    
P 20   4129.940524  21473.271307 -15113.814400    371.954100                    
V 20  -8069.988023  17616.618891  22576.734132     -0.004079                    
P 21 -20277.900798 -14612.574207  10809.551759    104.449231                    
V 21  -6376.744966 -11155.277293 -27119.720522     -0.022042                    
P 22  -8209.154387  23846.956422   9206.328316    -48.377830                    
V 22  -8003.087239   7904.824868 -28638.532905     -0.042623                    
P 23  16005.185483 -19441.594229  -8067.746062    291.396554                    
V 23  -2705.058381  10203.601993 -30066.044747      0.087138                    
P 24  20321.124517  11594.322123  12516.092924   -485.637925                    
V 24   7698.532538  14844.351029 -24967.473507     -0.009120                    
P 25  18173.266039 -11621.542964  14986.689011    499.127509                    
V 25  -6896.446958  18693.009342  22613.697207      0.002454                    
P 26   1924.558258 -24088.208945 -10741.576639    105.610211                    
V 26   8728.590878 -11015.398434  27021.093634     -0.074449                    
P 27 -13601.955755 -12983.080671 -19211.181391    -32.631329                    
V 27  23592.077899  -1824.674626 -15294.908299     -0.006082                    
P 28   -922.261249 -21399.974499  15693.662348   -362.287335                    
V 28  12552.790342  15621.697187  22026.044473     -0.151741                    
P 29  25493.751768  -3423.762526  -6924.662810   -585.520935                    
V 29   8562.691168   2719.719019  30257.570001      0.021467                    
P 30  -4995.087633  18073.982422 -18557.089800   -344.558582                    
V 30 -14195.132567 -19520.294457 -15332.719562      0.067411                    
P 31  -9486.191597 -23943.101237   5375.406523   -226.118482                    
V 31   6451.941251   4567.611723  30859.250798      0.003411                    
P 32   8658.839242 -14620.305488  20578.071751   -607.597659                    
V 32  25713.829955    136.383868 -11031.552374      0.025885                    
EOF
